SatCatId,ObjectName,LaunchYear,OrbitalPeriod,LaunchMass,StatusCode,Inclination,Status,UcsData,OrbitClassEstimated,LaunchSiteCountry,Owner,UseType,Purpose,LaunchVehicleClass,TLE1,TLE2,MeanMotion,Eccentricity,OrbitClass
52621,STARLINK-3984,2022,95.44,260.0,+,53.22,Active,1,LEO,USA,USA,Commercial,Communications,Falcon,1 52621U 22052Z   24173.36789345  .00000881  00000+0  73414-4 0  9998,2 52621  53.2166 200.7902 0001425  91.8943 268.2213 15.08836235116437,15.08836235,0.0001425,LEO
52622,STARLINK-4008,2022,95.44,260.0,+,53.22,Active,1,LEO,USA,USA,Commercial,Communications,Falcon,1 52622U 22052AA  24173.40147105  .00000012  00000+0  18845-4 0  9999,2 52622  53.2172 215.6362 0001036  92.6573 267.4538 15.08837617116230,15.08837617,0.0001036,LEO
52623,STARLINK-3986,2022,95.44,260.0,+,53.22,Active,1,LEO,USA,USA,Commercial,Communications,Falcon,1 52623U 22052AB  24173.29797543  .00000212  00000+0  31445-4 0  9997,2 52623  53.2157 201.1042 0001316  90.3196 269.7947 15.08829936116421,15.08829936,0.0001316,LEO
52624,STARLINK-4009,2022,95.44,260.0,+,53.22,Active,1,LEO,USA,USA,Commercial,Communications,Falcon,1 52624U 22052AC  24173.30628146  .00001597  00000+0  11842-3 0  9997,2 52624  53.2166 201.0480 0001316  86.6126 273.5016 15.08839709116427,15.08839709,0.0001316,LEO
52625,STARLINK-3988,2022,95.44,260.0,+,53.22,Active,1,LEO,USA,USA,Commercial,Communications,Falcon,1 52625U 22052AD  24173.29428658  .00000311  00000+0  37634-4 0  9993,2 52625  53.2165 201.1190 0001357  98.0472 262.0674 15.08842972116421,15.08842972,0.0001357,LEO
52626,STARLINK-3990,2022,95.44,260.0,+,53.22,Active,1,LEO,USA,USA,Commercial,Communications,Falcon,1 52626U 22052AE  24173.30535761 -.00003170  00000+0 -18128-3 0  9994,2 52626  53.2168 201.0719 0001322  93.3088 266.8055 15.08812152116426,15.08812152,0.0001322,LEO
52627,STARLINK-3992,2022,95.44,260.0,+,53.22,Active,1,LEO,USA,USA,Commercial,Communications,Falcon,1 52627U 22052AF  24173.48196716  .00001015  00000+0  81836-4 0  9998,2 52627  53.2162 200.2764 0001219  92.7453 267.3679 15.08843755116461,15.08843755,0.0001219,LEO
52628,STARLINK-4001,2022,95.44,260.0,+,53.22,Active,1,LEO,USA,USA,Commercial,Communications,Falcon,1 52628U 22052AG  24173.39779374  .00000740  00000+0  64559-4 0  9993,2 52628  53.2182 215.6562 0001415  98.9969 261.1184 15.08837843116237,15.08837843,0.0001415,LEO
52629,STARLINK-4022,2022,95.44,260.0,+,53.22,Active,1,LEO,USA,USA,Commercial,Communications,Falcon,1 52629U 22052AH  24173.34212812  .00003867  00000+0  26089-3 0  9996,2 52629  53.2145 200.8657 0001109  99.1800 260.9317 15.08845075116438,15.08845075,0.0001109,LEO
52630,STARLINK-3989,2022,95.44,260.0,+,53.22,Active,1,LEO,USA,USA,Commercial,Communications,Falcon,1 52630U 22052AJ  24173.35685195 -.00000481  00000+0 -12135-4 0  9996,2 52630  53.2164 200.8393 0001329  96.6753 263.4391 15.08835783116436,15.08835783,0.0001329,LEO
52631,STARLINK-3794,2022,95.44,260.0,+,53.22,Active,1,LEO,USA,USA,Commercial,Communications,Falcon,1 52631U 22052AK  24173.47557190  .00000520  00000+0  50768-4 0  9999,2 52631  53.2175 200.3129 0001578 106.3228 253.7937 15.08835864116464,15.08835864,0.0001578,LEO
52632,STARLINK-3995,2022,95.44,260.0,+,53.21,Active,1,LEO,USA,USA,Commercial,Communications,Falcon,1 52632U 22052AL  24173.35317240  .00002618  00000+0  18252-3 0  9998,2 52632  53.2156 200.8546 0001400  92.3164 267.7989 15.08844118116812,15.08844118,0.00014,LEO
52633,STARLINK-3994,2022,95.44,260.0,+,53.22,Active,1,LEO,USA,USA,Commercial,Communications,Falcon,1 52633U 22052AM  24173.46357223  .00001664  00000+0  12262-3 0  9991,2 52633  53.2159 200.3607 0001340  88.5732 271.5413 15.08840954116460,15.08840954,0.000134,LEO
52634,STARLINK-3974,2022,95.44,260.0,+,53.22,Active,1,LEO,USA,USA,Commercial,Communications,Falcon,1 52634U 22052AN  24173.47829768  .00002371  00000+0  16703-3 0  9991,2 52634  53.2154 200.3214 0001046  94.1930 265.9182 15.08840165116459,15.08840165,0.0001046,LEO
52635,STARLINK-3978,2022,95.44,260.0,+,53.22,Active,1,LEO,USA,USA,Commercial,Communications,Falcon,1 52635U 22052AP  24173.44608928  .00001133  00000+0  89227-4 0  9999,2 52635  53.2158 190.4378 0001273  89.7588 270.3550 15.08841583116594,15.08841583,0.0001273,LEO
52636,STARLINK-3967,2022,95.44,260.0,+,53.22,Active,1,LEO,USA,USA,Commercial,Communications,Falcon,1 52636U 22052AQ  24173.33845003  .00002090  00000+0  14932-3 0  9998,2 52636  53.2157 200.9222 0001260  89.4447 270.6689 15.08843520116438,15.0884352,0.000126,LEO
52637,STARLINK-3961,2022,95.44,-1.0,+,53.22,Active,0,LEO,USA,USA,Unknown,Unknown,Unknown,1 52637U 22052AR  24173.44240994  .00000723  00000+0  63481-4 0  9994,2 52637  53.2164 190.4549 0001324  88.3446 271.7697 15.08840537117392,15.08840537,0.0001324,LEO
52638,STARLINK-3941,2022,95.44,260.0,+,53.22,Active,1,LEO,USA,USA,Commercial,Communications,Falcon,1 52638U 22052AS  24173.40101267  .00000349  00000+0  39990-4 0  9992,2 52638  53.2161 200.6415 0001271  86.3393 273.7744 15.08838652117251,15.08838652,0.0001271,LEO
52639,STARLINK-3968,2022,95.44,260.0,+,53.22,Active,1,LEO,USA,USA,Commercial,Communications,Falcon,1 52639U 22052AT  24173.43137197  .00001092  00000+0  86693-4 0  9995,2 52639  53.2161 190.5048 0001177  88.1078 272.0049 15.08841137117393,15.08841137,0.0001177,LEO
52640,STARLINK-3977,2022,95.44,260.0,+,53.21,Active,1,LEO,USA,USA,Commercial,Communications,Falcon,1 52640U 22052AU  24173.31729669  .00003160  00000+0  21658-3 0  9992,2 52640  53.2152 191.0452 0001547  84.8018 275.3151 15.08835204116564,15.08835204,0.0001547,LEO
52641,STARLINK-3991,2022,95.44,260.0,+,53.22,Active,1,LEO,USA,USA,Commercial,Communications,Falcon,1 52641U 22052AV  24173.31458857  .00000827  00000+0  70006-4 0  9990,2 52641  53.2159 191.2315 0001339  88.2495 271.8650 15.08844302116573,15.08844302,0.0001339,LEO
52642,STARLINK-3971,2022,95.44,260.0,+,53.22,Active,1,LEO,USA,USA,Commercial,Communications,Falcon,1 52642U 22052AW  24173.43872781  .00000729  00000+0  63890-4 0  9994,2 52642  53.2166 190.4730 0001128  86.5409 273.5712 15.08842533116589,15.08842533,0.0001128,LEO
52643,STARLINK-3963,2022,95.44,260.0,+,53.22,Active,1,LEO,USA,USA,Commercial,Communications,Falcon,1 52643U 22052AX  24173.34768832  .00000904  00000+0  74871-4 0  9992,2 52643  53.2162 190.8531 0001307  88.7537 271.3605 15.08835630116570,15.0883563,0.0001307,LEO
52644,STARLINK-3985,2022,95.44,260.0,+,53.22,Active,1,LEO,USA,USA,Commercial,Communications,Falcon,1 52644U 22052AY  24173.43505023  .00001449  00000+0  10912-3 0  9994,2 52644  53.2159 190.4886 0001313  87.3277 272.7865 15.08842164116583,15.08842164,0.0001313,LEO
52645,STARLINK-3973,2022,95.44,260.0,+,53.22,Active,1,LEO,USA,USA,Commercial,Communications,Falcon,1 52645U 22052AZ  24173.49025237  .00000303  00000+0  37135-4 0  9990,2 52645  53.2164 190.3476 0001045  85.6705 274.4406 15.08842305116591,15.08842305,0.0001045,LEO
52646,STARLINK-3832,2022,95.44,260.0,+,53.22,Active,1,LEO,USA,USA,Commercial,Communications,Falcon,1 52646U 22052BA  24173.42769729  .00000046  00000+0  20969-4 0  9996,2 52646  53.2167 190.5617 0001262  88.0796 272.0340 15.08835641116598,15.08835641,0.0001262,LEO
52647,STARLINK-3846,2022,95.44,260.0,+,53.22,Active,1,LEO,USA,USA,Commercial,Communications,Falcon,1 52647U 22052BB  24173.28418722  .00000442  00000+0  45867-4 0  9999,2 52647  53.2167 191.2718 0001370  89.1654 270.9495 15.08835155116570,15.08835155,0.000137,LEO
52648,STARLINK-3854,2022,95.44,260.0,+,53.22,Active,1,LEO,USA,USA,Commercial,Communications,Falcon,1 52648U 22052BC  24173.42033628  .00000792  00000+0  67859-4 0  9997,2 52648  53.2169 190.5571 0001301  94.2826 265.8315 15.08838794116581,15.08838794,0.0001301,LEO
52649,STARLINK-3868,2022,95.44,260.0,+,53.22,Active,1,LEO,USA,USA,Commercial,Communications,Falcon,1 52649U 22052BD  24173.46079289  .00001105  00000+0  87518-4 0  9998,2 52649  53.2160 190.2256 0001334  89.7197 270.3948 15.08840575116602,15.08840575,0.0001334,LEO
52650,STARLINK-3891,2022,95.44,260.0,+,53.22,Active,1,LEO,USA,USA,Commercial,Communications,Falcon,1 52650U 22052BE  24173.29613738  .00000808  00000+0  68811-4 0  9998,2 52650  53.2156 181.2174 0001197  89.0448 271.0681 15.08843937116716,15.08843937,0.0001197,LEO
52656,STARLINK-4004,2022,95.44,260.0,+,53.22,Active,1,LEO,USA,USA,Commercial,Communications,Falcon,1 52656U 22053A   24173.19359007 -.00001022  00000+0 -46162-4 0  9996,2 52656  53.2181  86.5814 0001325  95.9321 264.1822 15.08837894116532,15.08837894,0.0001325,LEO
52657,STARLINK-4084,2022,95.44,260.0,+,53.22,Active,1,LEO,USA,USA,Commercial,Communications,Falcon,1 52657U 22053B   24173.16418138 -.00001361  00000+0 -67452-4 0  9996,2 52657  53.2182  87.0214 0001407  85.5726 274.5426 15.08841582116825,15.08841582,0.0001407,LEO
52658,STARLINK-4082,2022,95.44,260.0,+,53.22,Active,1,LEO,USA,USA,Commercial,Communications,Falcon,1 52658U 22053C   24173.52750997  .00000766  00000+0  66219-4 0  9995,2 52658  53.2183  85.0741 0001305 103.8410 256.2728 15.08841649116704,15.08841649,0.0001305,LEO
52659,STARLINK-3960,2022,95.44,260.0,+,53.22,Active,1,LEO,USA,USA,Commercial,Communications,Falcon,1 52659U 22053D   24173.19262495 -.00000259  00000+0  18266-5 0  9998,2 52659  53.2166  86.5271 0001122  84.4926 275.6194 15.08839419116640,15.08839419,0.0001122,LEO
52660,STARLINK-4081,2022,95.44,260.0,+,53.22,Active,1,LEO,USA,USA,Commercial,Communications,Falcon,1 52660U 22053E   24173.05647591  .00000474  00000+0  47875-4 0  9994,2 52660  53.2175  87.1835 0001275  99.5173 260.5964 15.08834066116512,15.08834066,0.0001275,LEO
52661,STARLINK-4042,2022,95.44,260.0,+,53.22,Active,1,LEO,USA,USA,Commercial,Communications,Falcon,1 52661U 22053F   24173.78143310  .00002270  00000+0  16071-3 0  9994,2 52661  53.2177  83.9360 0001559  92.1099 268.0071 15.08837267116555,15.08837267,0.0001559,LEO
